[{"OBJECT_NAME":"ONEWEB-0504","OBJECT_ID":"2022-138K","EPOCH":"2026-03-09T17:34:43.675680","MEAN_MOTION":13.19725454,"ECCENTRICITY":0.00015499,"INCLINATION":87.923,"RA_OF_ASC_NODE":324.7789,"ARG_OF_PERICENTER":87.5252,"MEAN_ANOMALY":272.6058,"EPHEMERIS_TYPE":0,"CLASSIFICATION_TYPE":"U","NORAD_CAT_ID":54122,"ELEMENT_SET_NO":999,"REV_AT_EPOCH":16371,"BSTAR":-0.00016984146,"MEAN_MOTION_DOT":-5.5e-7,"MEAN_MOTION_DDOT":0},{"OBJECT_NAME":"SL-14 DEB","OBJECT_ID":"1991-056DR","EPOCH":"2026-03-08T19:43:50.264256","MEAN_MOTION":13.20393138,"ECCENTRICITY":0.00134558,"INCLINATION":82.5986,"RA_OF_ASC_NODE":214.3324,"ARG_OF_PERICENTER":222.1757,"MEAN_ANOMALY":137.8333,"EPHEMERIS_TYPE":0,"CLASSIFICATION_TYPE":"U","NORAD_CAT_ID":47091,"ELEMENT_SET_NO":999,"REV_AT_EPOCH":25739,"BSTAR":0.0015116276,"MEAN_MOTION_DOT":6.24e-6,"MEAN_MOTION_DDOT":0}]
